0 CZ-4 DEB
1 26448U 99057KV  13282.38247173  .00009370  00000-0  21799-2 0  5912
2 26448 098.3281 258.8075 0097851 045.1197 315.7891 14.52165516712032
0 CZ-4 DEB
1 26448U 99057KV  13284.17392626  .00008773  00000-0  20414-2 0  5925
2 26448 098.3279 260.5850 0097756 039.7103 321.1196 14.52183494712292
0 CZ-4 DEB
1 26448U 99057KV  13286.17205266  .00007630  00000-0  17765-2 0  5937
2 26448 098.3276 262.5675 0097548 033.6459 327.0879 14.52211693712580
0 CZ-4 DEB
1 26448U 99057KV  13288.37683393  .00011576  00000-0  26863-2 0  5946
2 26448 098.3282 264.7553 0097400 026.9308 333.6895 14.52247614712900
0 CZ-4 DEB
1 26448U 99057KV  13289.41030411  .00010254  00000-0  23808-2 0  5958
2 26448 098.3286 265.7813 0097272 023.7972 336.7676 14.52266875713051
0 CZ-4 DEB
1 26448U 99057KV  13291.13272600  .00009410  00000-0  21853-2 0  5969
2 26448 098.3285 267.4898 0097027 018.5441 341.9251 14.52295726713305
0 CZ-4 DEB
1 26448U 99057KV  13292.16616178  .00008921  00000-0  20720-2 0  5974
2 26448 098.3290 268.5151 0096905 015.4000 345.0108 14.52312447713458
0 CZ-4 DEB
1 26448U 99057KV  13293.47516246  .00010240  00000-0  23754-2 0  5982
2 26448 098.3296 269.8138 0096834 011.4819 348.8554 14.52336671713640
0 CZ-4 DEB
1 26448U 99057KV  13294.71524670  .00012561  00000-0  29097-2 0  5995
2 26448 098.3298 271.0448 0096611 007.6363 352.6277 14.52355783713825
0 CZ-4 DEB
1 26448U 99057KV  13295.88642249  .00011824  00000-0  27391-2 0  6006
2 26448 098.3301 272.2070 0096491 004.0747 356.1212 14.52379612713990
